[{"OBJECT_NAME":"STARLINK-31981","OBJECT_ID":"2024-111V","EPOCH":"2026-03-09T10:36:37.839168","MEAN_MOTION":15.30206449,"ECCENTRICITY":0.00011663,"INCLINATION":53.1608,"RA_OF_ASC_NODE":76.9088,"ARG_OF_PERICENTER":80.4858,"MEAN_ANOMALY":279.6274,"EPHEMERIS_TYPE":0,"CLASSIFICATION_TYPE":"U","NORAD_CAT_ID":60035,"ELEMENT_SET_NO":999,"REV_AT_EPOCH":9892,"BSTAR":6.121863e-5,"MEAN_MOTION_DOT":1.455e-5,"MEAN_MOTION_DDOT":0},{"OBJECT_NAME":"COSMOS 1869","OBJECT_ID":"1987-062A","EPOCH":"2026-03-09T20:30:29.271744","MEAN_MOTION":15.35392408,"ECCENTRICITY":0.00185772,"INCLINATION":82.5127,"RA_OF_ASC_NODE":201.6716,"ARG_OF_PERICENTER":61.4986,"MEAN_ANOMALY":298.8125,"EPHEMERIS_TYPE":0,"CLASSIFICATION_TYPE":"U","NORAD_CAT_ID":18214,"ELEMENT_SET_NO":999,"REV_AT_EPOCH":8931,"BSTAR":0.00042037944,"MEAN_MOTION_DOT":0.00014573,"MEAN_MOTION_DDOT":0}]
